STARLINK-36582          
1 67599U 26018L   26055.12659245  .00154050  00000+0  10126-2 0  9991
2 67599  97.2855 120.2807 0001281  94.6226 265.5185 15.75247869  5220
STARLINK-36640          
1 67600U 26018M   26055.14600275  .00143939  00000+0  94817-3 0  9999
2 67600  97.2838 120.2518 0001280 107.0728 253.0677 15.75227840  5177
STARLINK-36635          
1 67601U 26018N   26055.25002315  .00020337  00000+0  13695-3 0  9994
2 67601  97.2851 120.4417 0001290  94.0613 315.5234 15.75180445  5196
STARLINK-36631          
1 67602U 26018P   26055.25002315  .00027740  00000+0  18639-3 0  9993
2 67602  97.2849 120.4606 0001447  73.7862  21.7898 15.75172415  5187
STARLINK-36626          
1 67603U 26018Q   26055.12059557  .00197188  00000+0  12891-2 0  9997
2 67603  97.2852 120.2893 0001189  67.7919 292.3472 15.75253728  5177
STARLINK-36605          
1 67604U 26018R   26055.13823637  .00240230  00000+0  15615-2 0  9991
2 67604  97.2833 120.2629 0001898 101.7426 258.4052 15.75264932  5179
STARLINK-36281          
1 67605U 26018S   26055.16207675  .00098391  00000+0  50756-3 0  9998
2 67605  97.2851 120.3837 0001724  62.2918 297.8525 15.80861680  5189
STARLINK-35843          
1 67606U 26018T   26055.13259142  .00171405  00000+0  11238-2 0  9991
2 67606  97.2856 120.2720 0001625  92.1742 267.9709 15.75258542  5174
STARLINK-36351          
1 67607U 26018U   26055.18235203  .00187774  00000+0  12286-2 0  9999
2 67607  97.2850 120.3580 0002453 142.5001 217.6436 15.75259020  5184
STARLINK-36411          
1 67608U 26018V   26054.14407931 -.00026419  00000+0 -13809-3 0  9997
2 67608  97.2849 119.3189 0000472 338.7837  21.3411 15.80740032  5021
STARLINK-36312          
1 67609U 26018W   26055.18023970  .00182239  00000+0  11937-2 0  9990
2 67609  97.2842 120.3610 0002063  70.9201 289.2288 15.75248483  5185
STARLINK-36387          
1 67610U 26018X   26055.15429114  .00138316  00000+0  70972-3 0  9991
2 67610  97.2852 120.3935 0001658  91.4108 268.7350 15.80869231  5189
