CCSDS_OMM_VERS = 2.0
CREATION_DATE  = 
ORIGINATOR     = 

OBJECT_NAME    = STARLINK-36582
OBJECT_ID      = 2026-018L
CENTER_NAME    = EARTH
REF_FRAME      = TEME
TIME_SYSTEM    = UTC
MEAN_ELEMENT_THEORY = SGP/SGP4

EPOCH          = 2026-02-24T03:02:17.587680
MEAN_MOTION    = 15.75247869
ECCENTRICITY   = .00012819
INCLINATION    = 97.2855
RA_OF_ASC_NODE = 120.2807
ARG_OF_PERICENTER = 94.6226
MEAN_ANOMALY   = 265.5185

EPHEMERIS_TYPE = 0
CLASSIFICATION_TYPE = U
NORAD_CAT_ID   = 67599
ELEMENT_SET_NO = 999
REV_AT_EPOCH   = 522
BSTAR          = .10126315E-2
MEAN_MOTION_DOT = .15405E-2
MEAN_MOTION_DDOT = 0

CCSDS_OMM_VERS = 2.0
CREATION_DATE  = 
ORIGINATOR     = 

OBJECT_NAME    = STARLINK-36640
OBJECT_ID      = 2026-018M
CENTER_NAME    = EARTH
REF_FRAME      = TEME
TIME_SYSTEM    = UTC
MEAN_ELEMENT_THEORY = SGP/SGP4

EPOCH          = 2026-02-24T03:30:14.637600
MEAN_MOTION    = 15.75227840
ECCENTRICITY   = .00012805
INCLINATION    = 97.2838
RA_OF_ASC_NODE = 120.2518
ARG_OF_PERICENTER = 107.0728
MEAN_ANOMALY   = 253.0677

EPHEMERIS_TYPE = 0
CLASSIFICATION_TYPE = U
NORAD_CAT_ID   = 67600
ELEMENT_SET_NO = 999
REV_AT_EPOCH   = 517
BSTAR          = .9481696E-3
MEAN_MOTION_DOT = .143939E-2
MEAN_MOTION_DDOT = 0

CCSDS_OMM_VERS = 2.0
CREATION_DATE  = 
ORIGINATOR     = 

OBJECT_NAME    = STARLINK-36635
OBJECT_ID      = 2026-018N
CENTER_NAME    = EARTH
REF_FRAME      = TEME
TIME_SYSTEM    = UTC
MEAN_ELEMENT_THEORY = SGP/SGP4

EPOCH          = 2026-02-24T06:00:02.000160
MEAN_MOTION    = 15.75180445
ECCENTRICITY   = .00012908
INCLINATION    = 97.2851
RA_OF_ASC_NODE = 120.4417
ARG_OF_PERICENTER = 94.0613
MEAN_ANOMALY   = 315.5234

EPHEMERIS_TYPE = 0
CLASSIFICATION_TYPE = U
NORAD_CAT_ID   = 67601
ELEMENT_SET_NO = 999
REV_AT_EPOCH   = 519
BSTAR          = .13695086E-3
MEAN_MOTION_DOT = .20337E-3
MEAN_MOTION_DDOT = 0

CCSDS_OMM_VERS = 2.0
CREATION_DATE  = 
ORIGINATOR     = 

OBJECT_NAME    = STARLINK-36631
OBJECT_ID      = 2026-018P
CENTER_NAME    = EARTH
REF_FRAME      = TEME
TIME_SYSTEM    = UTC
MEAN_ELEMENT_THEORY = SGP/SGP4

EPOCH          = 2026-02-24T06:00:02.000160
MEAN_MOTION    = 15.75172415
ECCENTRICITY   = .00014475
INCLINATION    = 97.2849
RA_OF_ASC_NODE = 120.4606
ARG_OF_PERICENTER = 73.7862
MEAN_ANOMALY   = 21.7898

EPHEMERIS_TYPE = 0
CLASSIFICATION_TYPE = U
NORAD_CAT_ID   = 67602
ELEMENT_SET_NO = 999
REV_AT_EPOCH   = 518
BSTAR          = .1863879E-3
MEAN_MOTION_DOT = .2774E-3
MEAN_MOTION_DDOT = 0

CCSDS_OMM_VERS = 2.0
CREATION_DATE  = 
ORIGINATOR     = 

OBJECT_NAME    = STARLINK-36626
OBJECT_ID      = 2026-018Q
CENTER_NAME    = EARTH
REF_FRAME      = TEME
TIME_SYSTEM    = UTC
MEAN_ELEMENT_THEORY = SGP/SGP4

EPOCH          = 2026-02-24T02:53:39.457248
MEAN_MOTION    = 15.75253728
ECCENTRICITY   = .00011892
INCLINATION    = 97.2852
RA_OF_ASC_NODE = 120.2893
ARG_OF_PERICENTER = 67.7919
MEAN_ANOMALY   = 292.3472

EPHEMERIS_TYPE = 0
CLASSIFICATION_TYPE = U
NORAD_CAT_ID   = 67603
ELEMENT_SET_NO = 999
REV_AT_EPOCH   = 517
BSTAR          = .12890579E-2
MEAN_MOTION_DOT = .197188E-2
MEAN_MOTION_DDOT = 0

CCSDS_OMM_VERS = 2.0
CREATION_DATE  = 
ORIGINATOR     = 

OBJECT_NAME    = STARLINK-36605
OBJECT_ID      = 2026-018R
CENTER_NAME    = EARTH
REF_FRAME      = TEME
TIME_SYSTEM    = UTC
MEAN_ELEMENT_THEORY = SGP/SGP4

EPOCH          = 2026-02-24T03:19:03.622368
MEAN_MOTION    = 15.75264932
ECCENTRICITY   = .00018987
INCLINATION    = 97.2833
RA_OF_ASC_NODE = 120.2629
ARG_OF_PERICENTER = 101.7426
MEAN_ANOMALY   = 258.4052

EPHEMERIS_TYPE = 0
CLASSIFICATION_TYPE = U
NORAD_CAT_ID   = 67604
ELEMENT_SET_NO = 999
REV_AT_EPOCH   = 517
BSTAR          = .15615122E-2
MEAN_MOTION_DOT = .24023E-2
MEAN_MOTION_DDOT = 0

CCSDS_OMM_VERS = 2.0
CREATION_DATE  = 
ORIGINATOR     = 

OBJECT_NAME    = STARLINK-36281
OBJECT_ID      = 2026-018S
CENTER_NAME    = EARTH
REF_FRAME      = TEME
TIME_SYSTEM    = UTC
MEAN_ELEMENT_THEORY = SGP/SGP4

EPOCH          = 2026-02-24T03:53:23.431200
MEAN_MOTION    = 15.80861680
ECCENTRICITY   = .0001724
INCLINATION    = 97.2851
RA_OF_ASC_NODE = 120.3837
ARG_OF_PERICENTER = 62.2918
MEAN_ANOMALY   = 297.8525

EPHEMERIS_TYPE = 0
CLASSIFICATION_TYPE = U
NORAD_CAT_ID   = 67605
ELEMENT_SET_NO = 999
REV_AT_EPOCH   = 518
BSTAR          = .50756326E-3
MEAN_MOTION_DOT = .98391E-3
MEAN_MOTION_DDOT = 0

CCSDS_OMM_VERS = 2.0
CREATION_DATE  = 
ORIGINATOR     = 

OBJECT_NAME    = STARLINK-35843
OBJECT_ID      = 2026-018T
CENTER_NAME    = EARTH
REF_FRAME      = TEME
TIME_SYSTEM    = UTC
MEAN_ELEMENT_THEORY = SGP/SGP4

EPOCH          = 2026-02-24T03:10:55.898688
MEAN_MOTION    = 15.75258542
ECCENTRICITY   = .00016256
INCLINATION    = 97.2856
RA_OF_ASC_NODE = 120.2720
ARG_OF_PERICENTER = 92.1742
MEAN_ANOMALY   = 267.9709

EPHEMERIS_TYPE = 0
CLASSIFICATION_TYPE = U
NORAD_CAT_ID   = 67606
ELEMENT_SET_NO = 999
REV_AT_EPOCH   = 517
BSTAR          = .11237869E-2
MEAN_MOTION_DOT = .171405E-2
MEAN_MOTION_DDOT = 0

CCSDS_OMM_VERS = 2.0
CREATION_DATE  = 
ORIGINATOR     = 

OBJECT_NAME    = STARLINK-36351
OBJECT_ID      = 2026-018U
CENTER_NAME    = EARTH
REF_FRAME      = TEME
TIME_SYSTEM    = UTC
MEAN_ELEMENT_THEORY = SGP/SGP4

EPOCH          = 2026-02-24T04:22:35.215392
MEAN_MOTION    = 15.75259020
ECCENTRICITY   = .00024531
INCLINATION    = 97.2850
RA_OF_ASC_NODE = 120.3580
ARG_OF_PERICENTER = 142.5001
MEAN_ANOMALY   = 217.6436

EPHEMERIS_TYPE = 0
CLASSIFICATION_TYPE = U
NORAD_CAT_ID   = 67607
ELEMENT_SET_NO = 999
REV_AT_EPOCH   = 518
BSTAR          = .12285619E-2
MEAN_MOTION_DOT = .187774E-2
MEAN_MOTION_DDOT = 0

CCSDS_OMM_VERS = 2.0
CREATION_DATE  = 
ORIGINATOR     = 

OBJECT_NAME    = STARLINK-36411
OBJECT_ID      = 2026-018V
CENTER_NAME    = EARTH
REF_FRAME      = TEME
TIME_SYSTEM    = UTC
MEAN_ELEMENT_THEORY = SGP/SGP4

EPOCH          = 2026-02-23T03:27:28.452384
MEAN_MOTION    = 15.80740032
ECCENTRICITY   = .0000472
INCLINATION    = 97.2849
RA_OF_ASC_NODE = 119.3189
ARG_OF_PERICENTER = 338.7837
MEAN_ANOMALY   = 21.3411

EPHEMERIS_TYPE = 0
CLASSIFICATION_TYPE = U
NORAD_CAT_ID   = 67608
ELEMENT_SET_NO = 999
REV_AT_EPOCH   = 502
BSTAR          = -.13809E-3
MEAN_MOTION_DOT = -.26419E-3
MEAN_MOTION_DDOT = 0

CCSDS_OMM_VERS = 2.0
CREATION_DATE  = 
ORIGINATOR     = 

OBJECT_NAME    = STARLINK-36312
OBJECT_ID      = 2026-018W
CENTER_NAME    = EARTH
REF_FRAME      = TEME
TIME_SYSTEM    = UTC
MEAN_ELEMENT_THEORY = SGP/SGP4

EPOCH          = 2026-02-24T04:19:32.710080
MEAN_MOTION    = 15.75248483
ECCENTRICITY   = .0002063
INCLINATION    = 97.2842
RA_OF_ASC_NODE = 120.3610
ARG_OF_PERICENTER = 70.9201
MEAN_ANOMALY   = 289.2288

EPHEMERIS_TYPE = 0
CLASSIFICATION_TYPE = U
NORAD_CAT_ID   = 67609
ELEMENT_SET_NO = 999
REV_AT_EPOCH   = 518
BSTAR          = .11937285E-2
MEAN_MOTION_DOT = .182239E-2
MEAN_MOTION_DDOT = 0

CCSDS_OMM_VERS = 2.0
CREATION_DATE  = 
ORIGINATOR     = 

OBJECT_NAME    = STARLINK-36387
OBJECT_ID      = 2026-018X
CENTER_NAME    = EARTH
REF_FRAME      = TEME
TIME_SYSTEM    = UTC
MEAN_ELEMENT_THEORY = SGP/SGP4

EPOCH          = 2026-02-24T03:42:10.754496
MEAN_MOTION    = 15.80869231
ECCENTRICITY   = .00016586
INCLINATION    = 97.2852
RA_OF_ASC_NODE = 120.3935
ARG_OF_PERICENTER = 91.4108
MEAN_ANOMALY   = 268.7350

EPHEMERIS_TYPE = 0
CLASSIFICATION_TYPE = U
NORAD_CAT_ID   = 67610
ELEMENT_SET_NO = 999
REV_AT_EPOCH   = 518
BSTAR          = .70971647E-3
MEAN_MOTION_DOT = .138316E-2
MEAN_MOTION_DDOT = 0

